ID,Address,Suburb,Price,Type,Date,Rooms,Bathroom,Car,Landsize,Age,Lattitude,Longtitude,train_station_id,distance_to_train_station,travel_min_to_CBD,over_priced?,crime_A_average,crime_B_average,crime_C_average
ID947915088,3/38 Charles St,BRUNSWICK,750000.0,t,10/09/2016,2,2.0,1.0,118.0,6.0,-37.7723,144.9643,19969,575.2321648247909,24.333333333333332,0,958,5673,628
ID715986380,318/6 Lisson Gr,HAWTHORN,485000.0,u,28/08/2016,1,1.0,1.0,0.0,19.0,-37.8264,145.02700000000004,19905,622.9978806235022,13.952380952380953,1,1150,7827,922
ID550141293,1A Aberfeldie St,ABERFELDIE,1195000.0,h,9/09/2017,3,2.0,2.0,381.0,113.0,-37.75629,144.90626,22253,876.2620452676709,18.333333333333332,0,817,1779,181
ID457806793,131 Outhwaite Rd,HEIDELBERG WEST,675000.0,h,28/08/2016,3,1.0,2.0,665.0,59.0,-37.739,145.0451,19936,1903.8127311717942,31.75,0,1150,7827,922
ID975910789,12A Almond St,CAULFIELD SOUTH,997000.0,h,29/04/2017,2,1.0,2.0,311.0,94.0,-37.8895,145.0229,19942,1699.8892899672348,29.23076923076923,0,1593,6648,530
ID526266913,34 Crana Gr,GREENSBOROUGH,922000.0,h,16/09/2017,3,2.0,2.0,587.0,40.0,-37.68569,145.10902,19985,2028.2880922667266,41.666666666666664,0,663,4010,377
ID637954773,22 Derby St,PASCOE VALE,835000.0,h,12/11/2016,3,1.0,2.0,422.0,69.0,-37.7337,144.9458,19964,1502.2401306332233,34.0,0,659,5219,338
ID389916108,44 Severn St,YARRAVILLE,1930000.0,h,10/12/2016,3,1.0,4.0,902.0,99.0,-37.8153,144.8796,19996,911.9520396082252,11.357142857142858,0,703,1502,135
ID776237930,105 Canning St,AVONDALE HEIGHTS,848000.0,h,4/03/2017,3,1.0,2.0,542.0,2.0,-37.7706,144.8629,20022,3180.0348217639826,21.4,0,1672,10063,646
ID982693548,26 Hodder St,BRIGHTON EAST,1250000.0,h,3/12/2016,2,1.0,2.0,443.0,11.0,-37.9077,145.0229,19940,1384.8166032950885,33.15384615384615,0,2744,10289,780
ID376317046,19 Hunter St,NORTHCOTE,890000.0,h,14/05/2016,2,1.0,1.0,225.0,109.0,-37.7663,145.0009,20015,417.46666474559123,23.3,0,136,302,42
ID129859438,13/947 Mt Alexander Rd,ESSENDON,485000.0,u,15/10/2016,2,1.0,1.0,0.0,9.0,-37.7504,144.9138,22253,657.7119563320266,18.333333333333332,0,334,1407,88
ID139220703,70 Purnell St,ALTONA,1005000.0,h,27/05/2017,3,1.0,4.0,575.0,59.0,-37.86715,144.80612,19925,685.2557130806741,28.5,0,2494,11307,1410
ID597680928,16 Tooronga Rd,MALVERN EAST,2020000.0,h,13/05/2017,3,2.0,2.0,711.0,104.0,-37.8723,145.0387,22248,664.2210891281866,19.5,1,717,1763,318
ID363669890,41 Service St,COBURG,1130000.0,h,12/11/2016,3,1.0,2.0,735.0,99.0,-37.7379,144.9623,19964,488.15722720035944,34.0,0,1071,5783,419
ID852321571,55 Burnett St,MITCHAM,1120000.0,h,16/09/2017,4,2.0,2.0,981.0,16.0,-37.81188,145.20051999999995,19900,1014.5085791717463,34.666666666666664,0,1471,7759,779
ID807535202,5/3 Lennox St,MOONEE PONDS,420000.0,u,10/09/2016,2,1.0,1.0,0.0,69.0,-37.7701,144.9079,20038,1105.5168725355657,22.0,1,278,489,65
ID518384296,1/171 Waiora Rd,HEIDELBERG HEIGHTS,630000.0,u,27/05/2017,3,1.0,1.0,277.0,6.0,-37.73426,145.05986,19936,1105.2161529489747,31.75,0,1173,8523,974
ID491439829,40/122 High St,PRESTON,550000.0,u,27/05/2017,3,2.0,1.0,0.0,7.0,-37.74762,145.00261,20013,314.61723492233943,26.3,0,705,5479,335
ID494072313,277 Danks St,MIDDLE PARK,2600000.0,h,3/09/2016,3,1.0,1.0,279.0,119.0,-37.8499,144.957,19958,2892.3581999363514,13.5,0,278,489,65
ID433157825,20 Hilton St,CLIFTON HILL,973000.0,h,12/08/2017,2,1.0,0.0,163.0,49.0,-37.793,144.98763,19974,838.2857080208045,15.142857142857142,0,1097,5916,553
ID370628727,306/64 MacAulay Rd,NORTH MELBOURNE,465000.0,u,22/07/2017,2,1.0,1.0,0.0,9.0,-37.79831,144.94261,19972,723.5210477984402,17.0,0,84,293,23
ID553858713,6/40 Magnolia Rd,IVANHOE,910000.0,u,3/06/2017,3,2.0,1.0,0.0,13.0,-37.75822,145.05056000000005,19934,665.9611459695905,29.0,0,591,1189,177
ID258452988,9/10 Tivoli Rd,SOUTH YARRA,475000.0,u,3/09/2016,2,1.0,0.0,0.0,19.0,-37.8391,144.9984,19959,538.1011865017771,12.543859649122806,0,1100,3636,457
ID762787100,5a Cavalier St,BENTLEIGH EAST,965000.0,t,24/09/2016,3,2.0,1.0,283.0,9.0,-37.9142,145.08,19917,1699.8451696428508,29.35483870967742,0,925,4701,308
ID614976589,5 Florida Ct,MOORABBIN,1385000.0,h,14/05/2016,4,2.0,2.0,807.0,19.0,-37.9431,145.0407,19872,599.958398814409,40.166666666666664,0,71,261,20
ID177027967,18 Lorraine St,ESSENDON,2355000.0,h,25/02/2017,4,2.0,3.0,715.0,99.0,-37.7582,144.9128,22253,385.52368048959306,18.333333333333332,0,330,1855,82
ID904572980,2/107 Station St,BURWOOD,700000.0,u,3/06/2017,2,1.0,1.0,251.0,44.0,-37.84738,145.11997,20042,3128.0261035885164,25.775,0,941,5813,575
ID676559199,47B Vannam Dr,ASHWOOD,1060000.0,t,22/07/2017,3,2.0,2.0,343.0,19.0,-37.86324000000001,145.10289,19848,1901.2379268834202,30.666666666666668,0,1672,10063,646
ID399251660,30 Veronica St,BENTLEIGH EAST,825000.0,h,3/09/2016,2,2.0,1.0,176.0,11.0,-37.9237,145.0763,19916,2689.6599200924184,31.35483870967742,0,925,4701,308
ID146714612,75 Derby St,KEW,1910000.0,h,10/12/2016,4,3.0,2.0,277.0,3.0,-37.8007,145.0374,19904,2306.5233353486296,15.666666666666666,0,271,771,74
ID335742646,12 Orion Ct,MULGRAVE,912000.0,h,16/09/2017,3,2.0,1.0,753.0,49.0,-37.9213,145.16366000000005,19914,2899.1870173937355,37.0,0,394,1153,165
ID841559360,34 Dean St,PRESTON,910000.0,h,12/11/2016,4,1.0,1.0,582.0,69.0,-37.7355,145.0178,20011,1541.2059459340987,31.2,0,659,5219,338
ID463994671,2/7 Murra Ct,ASHWOOD,860000.0,h,17/06/2017,3,2.0,2.0,280.0,29.0,-37.87105,145.10198,19847,1987.4935090325732,31.666666666666668,0,1672,10063,646
